ONEWEB-0136             
1 47282U 20100AA  26136.17194173 -.00000349  00000+0 -10054-2 0  9996
2 47282  87.8971 357.0149 0001540  75.6233 284.5066 13.12440767260464
ONEWEB-0137             
1 47283U 20100AB  26136.12959945  .00000348  00000+0  93179-3 0  9995
2 47283  87.8974 357.0321 0001846  88.1432 271.9908 13.12442996260369
ONEWEB-0138             
1 47284U 20100AC  26136.10757891 -.00000317  00000+0 -91663-3 0  9994
2 47284  87.8958 357.0446 0001567  76.9752 283.1552 13.12445401260443
ONEWEB-0139             
1 47285U 20100AD  26136.14839248  .00000457  00000+0  12338-2 0  9990
2 47285  87.8964 357.0222 0001829  84.0493 276.0844 13.12442400260526
ONEWEB-0140             
1 47286U 20100AE  26136.10247913 -.00000295  00000+0 -85665-3 0  9995
2 47286  87.8969 357.0208 0001910  79.4221 280.7123 13.12441905260480
ONEWEB-0141             
1 47287U 20100AF  26136.14810386  .00000319  00000+0  85175-3 0  9991
2 47287  87.8969 357.0174 0001856  94.0246 266.1095 13.12441602260471
ONEWEB-0142             
1 47288U 20100AG  26136.13651531  .00000403  00000+0  10843-2 0  9999
2 47288  87.8965 357.0430 0001547  95.7797 264.3508 13.12441848260469
ONEWEB-0143             
1 47289U 20100AH  26136.14654525  .00000402  00000+0  10829-2 0  9990
2 47289  87.8968 357.0382 0001781  84.1269 276.0062 13.12441385260444
ONEWEB-0144             
1 47290U 20100AJ  26136.11772810 -.00000166  00000+0 -49646-3 0  9996
2 47290  87.8972 357.0162 0001454  85.8485 274.2810 13.12443776260360
ONEWEB-0145             
1 47291U 20100AK  26136.16517143 -.00000103  00000+0 -32125-3 0  9993
2 47291  87.8959 357.0384 0001702  84.6522 275.4801 13.12440984260560
ONEWEB-0146             
1 47292U 20100AL  26136.08554884 -.00000051  00000+0 -17793-3 0  9994
2 47292  87.8966 357.0437 0002107  79.6530 280.4836 13.12440527260467
ONEWEB-0147             
1 47293U 20100AM  26136.12790781  .00000281  00000+0  74494-3 0  9992
2 47293  87.8971 357.0163 0001768  79.0094 281.1233 13.12443240260364
ONEWEB-0115             
1 48042U 21025A   26136.02876661 -.00000131  00000+0 -39367-3 0  9999
2 48042  87.8948 326.6296 0001850  87.7606 272.3735 13.13471637249376
ONEWEB-0152             
1 48043U 21025B   26136.27084538  .00000166  00000+0  41992-3 0  9994
2 48043  87.8938 326.5785 0001933  87.5921 272.5429 13.13472028249364
ONEWEB-0153             
1 48044U 21025C   26136.02029108 -.00000315  00000+0 -89855-3 0  9998
2 48044  87.8945 326.6322 0001696  91.6370 268.4954 13.13471317249324
ONEWEB-0154             
1 48045U 21025D   26136.09308320 -.00000203  00000+0 -58977-3 0  9999
2 48045  87.8941 326.6154 0001736  87.3451 272.7877 13.13471221249293
