[{"OBJECT_NAME":"ONEWEB-0136","OBJECT_ID":"2020-100AA","EPOCH":"2026-05-16T04:07:35.765472","MEAN_MOTION":13.12440767,"ECCENTRICITY":0.000154,"INCLINATION":87.8971,"RA_OF_ASC_NODE":357.0149,"ARG_OF_PERICENTER":75.6233,"MEAN_ANOMALY":284.5066,"EPHEMERIS_TYPE":0,"CLASSIFICATION_TYPE":"U","NORAD_CAT_ID":47282,"ELEMENT_SET_NO":999,"REV_AT_EPOCH":26046,"BSTAR":-0.0010054,"MEAN_MOTION_DOT":-3.49e-06,"MEAN_MOTION_DDOT":0.0},{"OBJECT_NAME":"ONEWEB-0137","OBJECT_ID":"2020-100AB","EPOCH":"2026-05-16T03:06:37.392480","MEAN_MOTION":13.12442996,"ECCENTRICITY":0.0001846,"INCLINATION":87.8974,"RA_OF_ASC_NODE":357.0321,"ARG_OF_PERICENTER":88.1432,"MEAN_ANOMALY":271.9908,"EPHEMERIS_TYPE":0,"CLASSIFICATION_TYPE":"U","NORAD_CAT_ID":47283,"ELEMENT_SET_NO":999,"REV_AT_EPOCH":26036,"BSTAR":0.00093179,"MEAN_MOTION_DOT":3.48e-06,"MEAN_MOTION_DDOT":0.0},{"OBJECT_NAME":"ONEWEB-0138","OBJECT_ID":"2020-100AC","EPOCH":"2026-05-16T02:34:54.817824","MEAN_MOTION":13.12445401,"ECCENTRICITY":0.0001567,"INCLINATION":87.8958,"RA_OF_ASC_NODE":357.0446,"ARG_OF_PERICENTER":76.9752,"MEAN_ANOMALY":283.1552,"EPHEMERIS_TYPE":0,"CLASSIFICATION_TYPE":"U","NORAD_CAT_ID":47284,"ELEMENT_SET_NO":999,"REV_AT_EPOCH":26044,"BSTAR":-0.00091663,"MEAN_MOTION_DOT":-3.17e-06,"MEAN_MOTION_DDOT":0.0},{"OBJECT_NAME":"ONEWEB-0139","OBJECT_ID":"2020-100AD","EPOCH":"2026-05-16T03:33:41.110272","MEAN_MOTION":13.124424,"ECCENTRICITY":0.0001829,"INCLINATION":87.8964,"RA_OF_ASC_NODE":357.0222,"ARG_OF_PERICENTER":84.0493,"MEAN_ANOMALY":276.0844,"EPHEMERIS_TYPE":0,"CLASSIFICATION_TYPE":"U","NORAD_CAT_ID":47285,"ELEMENT_SET_NO":999,"REV_AT_EPOCH":26052,"BSTAR":0.0012338,"MEAN_MOTION_DOT":4.57e-06,"MEAN_MOTION_DDOT":0.0},{"OBJECT_NAME":"ONEWEB-0140","OBJECT_ID":"2020-100AE","EPOCH":"2026-05-16T02:27:34.196832","MEAN_MOTION":13.12441905,"ECCENTRICITY":0.000191,"INCLINATION":87.8969,"RA_OF_ASC_NODE":357.0208,"ARG_OF_PERICENTER":79.4221,"MEAN_ANOMALY":280.7123,"EPHEMERIS_TYPE":0,"CLASSIFICATION_TYPE":"U","NORAD_CAT_ID":47286,"ELEMENT_SET_NO":999,"REV_AT_EPOCH":26048,"BSTAR":-0.00085665,"MEAN_MOTION_DOT":-2.95e-06,"MEAN_MOTION_DDOT":0.0},{"OBJECT_NAME":"ONEWEB-0141","OBJECT_ID":"2020-100AF","EPOCH":"2026-05-16T03:33:16.173504","MEAN_MOTION":13.12441602,"ECCENTRICITY":0.0001856,"INCLINATION":87.8969,"RA_OF_ASC_NODE":357.0174,"ARG_OF_PERICENTER":94.0246,"MEAN_ANOMALY":266.1095,"EPHEMERIS_TYPE":0,"CLASSIFICATION_TYPE":"U","NORAD_CAT_ID":47287,"ELEMENT_SET_NO":999,"REV_AT_EPOCH":26047,"BSTAR":0.0008517500000000001,"MEAN_MOTION_DOT":3.19e-06,"MEAN_MOTION_DDOT":0.0},{"OBJECT_NAME":"ONEWEB-0142","OBJECT_ID":"2020-100AG","EPOCH":"2026-05-16T03:16:34.922784","MEAN_MOTION":13.12441848,"ECCENTRICITY":0.0001547,"INCLINATION":87.8965,"RA_OF_ASC_NODE":357.043,"ARG_OF_PERICENTER":95.7797,"MEAN_ANOMALY":264.3508,"EPHEMERIS_TYPE":0,"CLASSIFICATION_TYPE":"U","NORAD_CAT_ID":47288,"ELEMENT_SET_NO":999,"REV_AT_EPOCH":26046,"BSTAR":0.0010843,"MEAN_MOTION_DOT":4.03e-06,"MEAN_MOTION_DDOT":0.0},{"OBJECT_NAME":"ONEWEB-0143","OBJECT_ID":"2020-100AH","EPOCH":"2026-05-16T03:31:01.509600","MEAN_MOTION":13.12441385,"ECCENTRICITY":0.0001781,"INCLINATION":87.8968,"RA_OF_ASC_NODE":357.0382,"ARG_OF_PERICENTER":84.1269,"MEAN_ANOMALY":276.0062,"EPHEMERIS_TYPE":0,"CLASSIFICATION_TYPE":"U","NORAD_CAT_ID":47289,"ELEMENT_SET_NO":999,"REV_AT_EPOCH":26044,"BSTAR":0.0010829,"MEAN_MOTION_DOT":4.02e-06,"MEAN_MOTION_DDOT":0.0},{"OBJECT_NAME":"ONEWEB-0144","OBJECT_ID":"2020-100AJ","EPOCH":"2026-05-16T02:49:31.707840","MEAN_MOTION":13.12443776,"ECCENTRICITY":0.0001454,"INCLINATION":87.8972,"RA_OF_ASC_NODE":357.0162,"ARG_OF_PERICENTER":85.8485,"MEAN_ANOMALY":274.281,"EPHEMERIS_TYPE":0,"CLASSIFICATION_TYPE":"U","NORAD_CAT_ID":47290,"ELEMENT_SET_NO":999,"REV_AT_EPOCH":26036,"BSTAR":-0.00049646,"MEAN_MOTION_DOT":-1.66e-06,"MEAN_MOTION_DDOT":0.0},{"OBJECT_NAME":"ONEWEB-0145","OBJECT_ID":"2020-100AK","EPOCH":"2026-05-16T03:57:50.811552","MEAN_MOTION":13.12440984,"ECCENTRICITY":0.0001702,"INCLINATION":87.8959,"RA_OF_ASC_NODE":357.0384,"ARG_OF_PERICENTER":84.6522,"MEAN_ANOMALY":275.4801,"EPHEMERIS_TYPE":0,"CLASSIFICATION_TYPE":"U","NORAD_CAT_ID":47291,"ELEMENT_SET_NO":999,"REV_AT_EPOCH":26056,"BSTAR":-0.00032125,"MEAN_MOTION_DOT":-1.03e-06,"MEAN_MOTION_DDOT":0.0},{"OBJECT_NAME":"ONEWEB-0146","OBJECT_ID":"2020-100AL","EPOCH":"2026-05-16T02:03:11.419776","MEAN_MOTION":13.12440527,"ECCENTRICITY":0.0002107,"INCLINATION":87.8966,"RA_OF_ASC_NODE":357.0437,"ARG_OF_PERICENTER":79.653,"MEAN_ANOMALY":280.4836,"EPHEMERIS_TYPE":0,"CLASSIFICATION_TYPE":"U","NORAD_CAT_ID":47292,"ELEMENT_SET_NO":999,"REV_AT_EPOCH":26046,"BSTAR":-0.00017793,"MEAN_MOTION_DOT":-5.1e-07,"MEAN_MOTION_DDOT":0.0},{"OBJECT_NAME":"ONEWEB-0147","OBJECT_ID":"2020-100AM","EPOCH":"2026-05-16T03:04:11.234784","MEAN_MOTION":13.1244324,"ECCENTRICITY":0.0001768,"INCLINATION":87.8971,"RA_OF_ASC_NODE":357.0163,"ARG_OF_PERICENTER":79.0094,"MEAN_ANOMALY":281.1233,"EPHEMERIS_TYPE":0,"CLASSIFICATION_TYPE":"U","NORAD_CAT_ID":47293,"ELEMENT_SET_NO":999,"REV_AT_EPOCH":26036,"BSTAR":0.00074494,"MEAN_MOTION_DOT":2.81e-06,"MEAN_MOTION_DDOT":0.0},{"OBJECT_NAME":"ONEWEB-0115","OBJECT_ID":"2021-025A","EPOCH":"2026-05-16T00:41:25.435104","MEAN_MOTION":13.13471637,"ECCENTRICITY":0.000185,"INCLINATION":87.8948,"RA_OF_ASC_NODE":326.6296,"ARG_OF_PERICENTER":87.7606,"MEAN_ANOMALY":272.3735,"EPHEMERIS_TYPE":0,"CLASSIFICATION_TYPE":"U","NORAD_CAT_ID":48042,"ELEMENT_SET_NO":999,"REV_AT_EPOCH":24937,"BSTAR":-0.00039367000000000004,"MEAN_MOTION_DOT":-1.31e-06,"MEAN_MOTION_DDOT":0.0},{"OBJECT_NAME":"ONEWEB-0152","OBJECT_ID":"2021-025B","EPOCH":"2026-05-16T06:30:01.040832","MEAN_MOTION":13.13472028,"ECCENTRICITY":0.0001933,"INCLINATION":87.8938,"RA_OF_ASC_NODE":326.5785,"ARG_OF_PERICENTER":87.5921,"MEAN_ANOMALY":272.5429,"EPHEMERIS_TYPE":0,"CLASSIFICATION_TYPE":"U","NORAD_CAT_ID":48043,"ELEMENT_SET_NO":999,"REV_AT_EPOCH":24936,"BSTAR":0.00041992,"MEAN_MOTION_DOT":1.66e-06,"MEAN_MOTION_DDOT":0.0},{"OBJECT_NAME":"ONEWEB-0153","OBJECT_ID":"2021-025C","EPOCH":"2026-05-16T00:29:13.149312","MEAN_MOTION":13.13471317,"ECCENTRICITY":0.0001696,"INCLINATION":87.8945,"RA_OF_ASC_NODE":326.6322,"ARG_OF_PERICENTER":91.637,"MEAN_ANOMALY":268.4954,"EPHEMERIS_TYPE":0,"CLASSIFICATION_TYPE":"U","NORAD_CAT_ID":48044,"ELEMENT_SET_NO":999,"REV_AT_EPOCH":24932,"BSTAR":-0.00089855,"MEAN_MOTION_DOT":-3.15e-06,"MEAN_MOTION_DDOT":0.0},{"OBJECT_NAME":"ONEWEB-0154","OBJECT_ID":"2021-025D","EPOCH":"2026-05-16T02:14:02.388480","MEAN_MOTION":13.13471221,"ECCENTRICITY":0.0001736,"INCLINATION":87.8941,"RA_OF_ASC_NODE":326.6154,"ARG_OF_PERICENTER":87.3451,"MEAN_ANOMALY":272.7877,"EPHEMERIS_TYPE":0,"CLASSIFICATION_TYPE":"U","NORAD_CAT_ID":48045,"ELEMENT_SET_NO":999,"REV_AT_EPOCH":24929,"BSTAR":-0.00058977,"MEAN_MOTION_DOT":-2.03e-06,"MEAN_MOTION_DDOT":0.0}]